STARLINK-35627          
1 66172U 25240AC  26177.99760508  .00023004  00000+0  78674-3 0  9995
2 66172  53.1600 275.1013 0001038  94.3519 265.7600 15.30186695 38721
STARLINK-35634          
1 66173U 25240AD  26177.77359866  .00032797  00000+0  97780-3 0  9991
2 66173  53.1582 274.4194 0001179 100.1621 259.9515 15.34392955 38710
STARLINK-35363          
1 66178U 25243B   26178.06751736  .00039835  00000+0  11835-2 0  9990
2 66178  53.1578  96.9464 0001049 101.9924 258.1196 15.34410301 37405
STARLINK-35346          
1 66179U 25243C   26178.04857662  .00031360  00000+0  93586-3 0  9993
2 66179  53.1594  96.8319 0000927  88.3400 271.7709 15.34384055 37400
STARLINK-35335          
1 66180U 25243D   26178.16670139  .00045731  00000+0  13586-2 0  9998
2 66180  53.1609  96.7823 0001774  73.9740 323.2405 15.34349234  5755
STARLINK-35342          
1 66181U 25243E   26178.01709257  .00035383  00000+0  10527-2 0  9991
2 66181  53.1592  97.3422 0001504 110.2670 249.8494 15.34420316 37394
STARLINK-35333          
1 66182U 25243F   26178.06961729  .00042973  00000+0  12761-2 0  9996
2 66182  53.1591  96.9626 0000989  97.3120 262.7995 15.34390453 37406
STARLINK-35310          
1 66183U 25243G   26178.18095017  .00030179  00000+0  90238-3 0  9999
2 66183  53.1596  96.2361 0001517  93.5330 266.5846 15.34341654 37428
STARLINK-35317          
1 66184U 25243H   26178.05490028  .00029978  00000+0  89409-3 0  9990
2 66184  53.1605  96.8753 0001300  76.8318 283.2830 15.34426498 37408
STARLINK-35377          
1 66185U 25243J   26178.05699272  .00034132  00000+0  10169-2 0  9997
2 66185  53.1587  96.8882 0000867  88.7396 271.3706 15.34394135 37408
STARLINK-35365          
1 66186U 25243K   26178.08855400  .00045590  00000+0  13526-2 0  9998
2 66186  53.1607  97.0817 0001133  98.9670 261.1461 15.34392634 37405
STARLINK-35350          
1 66187U 25243L   26178.16670139  .00056662  00000+0  16775-2 0  9993
2 66187  53.1608  96.9683 0001074  77.0619 226.9168 15.34362501  5858
STARLINK-35041          
1 66188U 25243M   26178.01500528  .00034452  00000+0  10260-2 0  9998
2 66188  53.1597  97.3331 0000846 102.8181 257.2916 15.34403979 37395
STARLINK-34694          
1 66189U 25243N   26178.09246110  .00030088  00000+0  10241-2 0  9991
2 66189  53.1587  97.1029 0001057 102.9410 257.1709 15.30192844 37401
STARLINK-34863          
1 66190U 25243P   26178.03981144  .00029403  00000+0  10014-2 0  9997
2 66190  53.1593  97.4861 0001274  88.4437 271.6710 15.30185004 37396
STARLINK-35061          
1 66191U 25243Q   26178.08434451  .00034704  00000+0  10337-2 0  9995
2 66191  53.1597  97.0544 0000977 126.3691 233.7402 15.34395374 37404
STARLINK-34937          
1 66192U 25243R   26178.06540266  .00002076  00000+0  72595-4 0  9999
2 66192  53.1594  96.9360 0001000  87.7920 272.3197 15.34386847 37404
STARLINK-35197          
1 66193U 25243S   26178.01448225  .00015350  00000+0  52960-3 0  9999
2 66193  53.1580  97.3234 0001244 110.2076 249.9059 15.30183154 37396
STARLINK-35374          
1 66194U 25243T   26178.08580330  .00024411  00000+0  79569-3 0  9993
2 66194  53.1584  96.3461 0001517 145.3889 214.7211 15.31705531 37419
STARLINK-34813          
1 66195U 25243U   26178.05278741  .00017799  00000+0  53700-3 0  9991
2 66195  53.1610  96.8566 0001546  80.7676 279.3501 15.34379895 37400
STARLINK-35409          
1 66196U 25243V   26178.16670139  .00042803  00000+0  14506-2 0  9995
2 66196  53.1590  96.7233 0001205  87.7028 339.0503 15.30164654  5860
STARLINK-35259          
1 66197U 25243W   26178.09552743  .00483412  00000+0  15005-1 0  9997
2 66197  53.1602  97.1247 0001826 181.9052 178.1942 15.30829510 37401
STARLINK-35518          
1 66198U 25243X   26178.05880383  .00027040  00000+0  92191-3 0  9992
2 66198  53.1583  97.5995 0001034  91.3088 268.8031 15.30194859 37393
STARLINK-35509          
1 66199U 25243Y   26178.07874036  .00018778  00000+0  64498-3 0  9990
2 66199  53.1565  97.0119 0000846 105.0452 255.0642 15.30176169 37407
STARLINK-35551          
1 66200U 25243Z   26178.01659365  .00018000  00000+0  61838-3 0  9996
2 66200  53.1582  97.3327 0001581  90.0643 270.0539 15.30199690 37399
STARLINK-35543          
1 66201U 25243AA  26178.03922779  .00023143  00000+0  75530-3 0  9999
2 66201  53.1589  96.7650 0001206  69.3882 290.7249 15.31696281 37405
STARLINK-35534          
1 66202U 25243AB  26178.08824191  .00032849  00000+0  11167-2 0  9992
2 66202  53.1586  97.0708 0001080 100.3263 259.7860 15.30189036 37408
STARLINK-35548          
1 66203U 25243AC  26178.16670139  .00046052  00000+0  15599-2 0  9997
2 66203  53.1592  96.7429 0001060  87.0174 328.1756 15.30147910  5867
STARLINK-35490          
1 66204U 25243AD  26178.16670139  .00047990  00000+0  14241-2 0  9993
2 66204  53.1602  96.6899 0001465  89.6897 353.9290 15.34362709  5812
STARLINK-35748          
1 66206U 25244A   26178.01378867  .00039480  00000+0  11740-2 0  9999
2 66206  53.1588  80.9749 0000934  97.5634 262.5475 15.34386184 38419
